STARLINK-31967          
1 60021U 24111F   26068.40307641 -.00001132  00000+0 -26110-4 0  9997
2 60021  53.1598  76.6673 0001376  88.3898 271.7261 15.30190080 99009
TOMORROW-S4             
1 62386U 24247K   26068.53305366  .00012677  00000+0  46927-3 0  9990
2 62386  44.9818 117.9996 0004434 210.4078 149.6548 15.27717249 67702
